OBJECT_NAME,OBJECT_ID,EPOCH,MEAN_MOTION,ECCENTRICITY,INCLINATION,RA_OF_ASC_NODE,ARG_OF_PERICENTER,MEAN_ANOMALY,EPHEMERIS_TYPE,CLASSIFICATION_TYPE,NORAD_CAT_ID,ELEMENT_SET_NO,REV_AT_EPOCH,BSTAR,MEAN_MOTION_DOT,MEAN_MOTION_DDOT,RMS,DATA_SOURCE
STARLINK-30849,2023-171R,2026-01-02T19:39:41.999990,15.02517213,.0001466,43.0029,283.5877,262.0796,353.7985,0,C,58245,2,1,.13297E-2,.18021E-3,0,0.270,SpaceX-E
STARLINK-30886,2023-171S,2026-01-02T19:41:42.000000,15.02546503,.0001429,43.0028,283.6643,267.8694,319.4449,0,C,58246,2,1,-.68576E-3,-.92943E-4,0,0.260,SpaceX-E
STARLINK-30850,2023-171T,2026-01-02T19:38:42.000029,15.02550290,.0000964,43.0028,283.6343,267.4907,326.5756,0,C,58247,2,1,-.94828E-3,-.12852E-3,0,0.273,SpaceX-E
STARLINK-30823,2023-171U,2026-01-02T19:42:41.999962,15.02517968,.0001122,43.0025,283.7031,271.5005,301.5620,0,C,58248,2,1,.11901E-2,.16128E-3,0,0.283,SpaceX-E
STARLINK-30873,2023-171V,2026-01-02T19:40:42.000038,15.02541972,.0001381,43.0026,283.7526,270.2006,277.2859,0,C,58249,2,1,-.42266E-3,-.57283E-4,0,0.308,SpaceX-E
STARLINK-30808,2023-171W,2026-01-02T19:45:42.000019,15.02515524,.000132,43.0031,285.7753,276.4975,137.6198,0,C,58250,2,1,.13551E-2,.18365E-3,0,0.267,SpaceX-E
STARLINK-30881,2023-171X,2026-01-02T19:44:41.999971,15.02538731,.0001138,43.0029,284.2516,270.6512,39.5072,0,C,58251,2,1,-.22225E-3,-.30121E-4,0,0.266,SpaceX-E
STARLINK-30883,2023-171Y,2026-01-02T19:43:42.000010,15.02516582,.0001459,43.0027,283.8625,266.7303,237.9711,0,C,58252,2,1,.10918E-2,.14794E-3,0,0.273,SpaceX-E
STARLINK-30907,2023-177B,2026-01-02T19:45:42.000019,15.02521698,.0001403,43.0037,349.7997,275.6218,98.2010,0,C,58352,2,1,.50025E-3,.67784E-4,0,0.267,SpaceX-E
STARLINK-30896,2023-177C,2026-01-02T19:39:41.999990,15.27587449,.0001383,42.9999,220.8061,266.7779,328.2167,0,C,58353,2,1,-.69207E-3,-.19102E-3,0,0.361,SpaceX-E
STARLINK-30832,2023-177D,2026-01-02T19:38:42.000029,15.02516146,.0001334,43.0039,349.3497,266.0105,285.8446,0,C,58354,2,1,.12443E-2,.16862E-3,0,0.249,SpaceX-E
STARLINK-30903,2023-177E,2026-01-02T19:47:42.000029,15.02481190,.0001391,43.0037,349.9085,277.2668,62.1261,0,C,58355,2,1,.89407E-3,.12103E-3,0,0.332,SpaceX-E
STARLINK-30905,2023-177F,2026-01-02T19:38:42.000029,15.02489241,.0001289,43.0035,349.7493,272.4271,99.2410,0,C,58356,2,1,.10765E-2,.14577E-3,0,0.306,SpaceX-E
STARLINK-30842,2023-177G,2026-01-02T19:44:41.999971,15.02499441,.0001415,43.0040,335.7077,274.4032,221.7945,0,C,58357,2,1,.15365E-2,.20815E-3,0,0.252,SpaceX-E
STARLINK-30858,2023-177H,2026-01-02T19:46:41.999981,15.02540755,.0001464,43.0040,349.8237,272.9530,98.5867,0,C,58358,2,1,-.2468E-3,-.3345E-4,0,0.321,SpaceX-E
STARLINK-30878,2023-177J,2026-01-02T19:46:41.999981,15.02535758,.0001345,43.0035,349.2483,273.6604,338.3061,0,C,58359,2,1,-.11494E-3,-.15577E-4,0,0.306,SpaceX-E
STARLINK-30897,2023-177K,2026-01-02T19:37:41.999981,15.02513574,.0001013,43.0038,349.8985,269.2881,50.4075,0,C,58360,2,1,.11578E-2,.15688E-3,0,0.245,SpaceX-E
STARLINK-30885,2023-177L,2026-01-02T19:44:41.999971,15.02512476,.0001217,43.0036,349.7472,265.3247,134.7917,0,C,58361,2,1,.12977E-2,.17585E-3,0,0.245,SpaceX-E
STARLINK-30890,2023-177M,2026-01-02T19:43:42.000010,15.02541203,.0001283,43.0037,349.7061,272.1332,142.2261,0,C,58362,2,1,-.33168E-3,-.44952E-4,0,0.333,SpaceX-E
STARLINK-30909,2023-177N,2026-01-02T19:37:41.999981,15.02508852,.0001367,43.0038,349.7133,265.3727,132.4674,0,C,58363,2,1,.12134E-2,.16441E-3,0,0.245,SpaceX-E
STARLINK-30904,2023-177P,2026-01-02T19:47:42.000029,15.02536712,.0001211,43.0034,348.0000,274.2065,145.1149,0,C,58364,2,1,-.26114E-4,-.35392E-5,0,0.305,SpaceX-E
STARLINK-30918,2023-177Q,2026-01-02T19:46:41.999981,15.02512499,.0001313,43.0038,349.5644,269.4967,210.2620,0,C,58365,2,1,.13579E-2,.184E-3,0,0.238,SpaceX-E
STARLINK-30892,2023-177R,2026-01-02T19:37:41.999981,15.02513560,.000125,43.0036,349.6403,261.7630,166.1252,0,C,58366,2,1,.11353E-2,.15384E-3,0,0.257,SpaceX-E
STARLINK-30891,2023-177S,2026-01-02T19:45:42.000019,15.02533735,.0001078,43.0035,349.5245,270.7411,223.2980,0,C,58367,2,1,-.24136E-3,-.32705E-4,0,0.309,SpaceX-E
STARLINK-30889,2023-177T,2026-01-02T19:36:42.000019,15.02545573,.0001117,43.0037,349.5875,266.5856,181.5586,0,C,58368,2,1,-.83883E-3,-.11368E-3,0,0.378,SpaceX-E
STARLINK-30870,2023-177U,2026-01-02T19:39:41.999990,15.02572786,.0001528,43.0036,349.5181,269.6336,213.7772,0,C,58369,2,1,-.15418E-2,-.20904E-3,0,0.446,SpaceX-E
STARLINK-30888,2023-177V,2026-01-02T19:43:42.000010,15.02535508,.0001461,43.0037,349.9784,265.6167,28.4383,0,C,58370,2,1,.13751E-2,.18645E-3,0,0.225,SpaceX-E
STARLINK-30859,2023-177W,2026-01-02T19:47:42.000029,15.02529893,.00013,43.0039,349.8143,274.6266,88.6943,0,C,58371,2,1,.39504E-4,.53531E-5,0,0.223,SpaceX-E
STARLINK-30884,2023-177X,2026-01-02T19:36:42.000019,15.02533469,.0001368,43.0037,349.4561,269.5246,232.7211,0,C,58372,2,1,-.49501E-4,-.67082E-5,0,0.299,SpaceX-E
