{
  "58245": {
    "noradId": "58245",
    "tle": [
      "1 58245C 23171R   26002.81923611  .00018021  00000+0  13297-2 0    29",
      "2 58245  43.0029 283.5877 0001466 262.0796 353.7985 15.02517213    11"
    ]
  },
  "58246": {
    "noradId": "58246",
    "tle": [
      "1 58246C 23171S   26002.82062500 -.00009294  00000+0 -68576-3 0    27",
      "2 58246  43.0028 283.6643 0001429 267.8694 319.4449 15.02546503    10"
    ]
  },
  "58247": {
    "noradId": "58247",
    "tle": [
      "1 58247C 23171T   26002.81854167 -.00012852  00000+0 -94828-3 0    28",
      "2 58247  43.0028 283.6343 0000964 267.4907 326.5756 15.02550290    12"
    ]
  },
  "58248": {
    "noradId": "58248",
    "tle": [
      "1 58248C 23171U   26002.82131944  .00016128  00000+0  11901-2 0    29",
      "2 58248  43.0025 283.7031 0001122 271.5005 301.5620 15.02517968    15"
    ]
  },
  "58249": {
    "noradId": "58249",
    "tle": [
      "1 58249C 23171V   26002.81993056 -.00005728  00000+0 -42266-3 0    24",
      "2 58249  43.0026 283.7526 0001381 270.2006 277.2859 15.02541972    15"
    ]
  },
  "58250": {
    "noradId": "58250",
    "tle": [
      "1 58250C 23171W   26002.82340278  .00018365  00000+0  13551-2 0    22",
      "2 58250  43.0031 285.7753 0001320 276.4975 137.6198 15.02515524    12"
    ]
  },
  "58251": {
    "noradId": "58251",
    "tle": [
      "1 58251C 23171X   26002.82270833 -.00003012  00000+0 -22225-3 0    26",
      "2 58251  43.0029 284.2516 0001138 270.6512  39.5072 15.02538731    17"
    ]
  },
  "58252": {
    "noradId": "58252",
    "tle": [
      "1 58252C 23171Y   26002.82201389  .00014794  00000+0  10918-2 0    29",
      "2 58252  43.0027 283.8625 0001459 266.7303 237.9711 15.02516582    16"
    ]
  },
  "58352": {
    "noradId": "58352",
    "tle": [
      "1 58352C 23177B   26002.82340278  .00006778  00000+0  50025-3 0    24",
      "2 58352  43.0037 349.7997 0001403 275.6218  98.2010 15.02521698    19"
    ]
  },
  "58353": {
    "noradId": "58353",
    "tle": [
      "1 58353C 23177C   26002.81923611 -.00019102  00000+0 -69207-3 0    21",
      "2 58353  42.9999 220.8061 0001383 266.7779 328.2167 15.27587449    18"
    ]
  },
  "58354": {
    "noradId": "58354",
    "tle": [
      "1 58354C 23177D   26002.81854167  .00016862  00000+0  12443-2 0    28",
      "2 58354  43.0039 349.3497 0001334 266.0105 285.8446 15.02516146    15"
    ]
  },
  "58355": {
    "noradId": "58355",
    "tle": [
      "1 58355C 23177E   26002.82479167  .00012103  00000+0  89407-3 0    22",
      "2 58355  43.0037 349.9085 0001391 277.2668  62.1261 15.02481190    15"
    ]
  },
  "58356": {
    "noradId": "58356",
    "tle": [
      "1 58356C 23177F   26002.81854167  .00014577  00000+0  10765-2 0    26",
      "2 58356  43.0035 349.7493 0001289 272.4271  99.2410 15.02489241    10"
    ]
  },
  "58357": {
    "noradId": "58357",
    "tle": [
      "1 58357C 23177G   26002.82270833  .00020815  00000+0  15365-2 0    23",
      "2 58357  43.0040 335.7077 0001415 274.4032 221.7945 15.02499441    16"
    ]
  },
  "58358": {
    "noradId": "58358",
    "tle": [
      "1 58358C 23177H   26002.82409722 -.00003345  00000+0 -24680-3 0    27",
      "2 58358  43.0040 349.8237 0001464 272.9530  98.5867 15.02540755    19"
    ]
  },
  "58359": {
    "noradId": "58359",
    "tle": [
      "1 58359C 23177J   26002.82409722 -.00001558  00000+0 -11494-3 0    21",
      "2 58359  43.0035 349.2483 0001345 273.6604 338.3061 15.02535758    17"
    ]
  },
  "58360": {
    "noradId": "58360",
    "tle": [
      "1 58360C 23177K   26002.81784722  .00015688  00000+0  11578-2 0    27",
      "2 58360  43.0038 349.8985 0001013 269.2881  50.4075 15.02513574    14"
    ]
  },
  "58361": {
    "noradId": "58361",
    "tle": [
      "1 58361C 23177L   26002.82270833  .00017585  00000+0  12977-2 0    24",
      "2 58361  43.0036 349.7472 0001217 265.3247 134.7917 15.02512476    13"
    ]
  },
  "58362": {
    "noradId": "58362",
    "tle": [
      "1 58362C 23177M   26002.82201389 -.00004495  00000+0 -33168-3 0    29",
      "2 58362  43.0037 349.7061 0001283 272.1332 142.2261 15.02541203    19"
    ]
  },
  "58363": {
    "noradId": "58363",
    "tle": [
      "1 58363C 23177N   26002.81784722  .00016441  00000+0  12134-2 0    27",
      "2 58363  43.0038 349.7133 0001367 265.3727 132.4674 15.02508852    18"
    ]
  },
  "58364": {
    "noradId": "58364",
    "tle": [
      "1 58364C 23177P   26002.82479167 -.00000354  00000+0 -26114-4 0    26",
      "2 58364  43.0034 348.0000 0001211 274.2065 145.1149 15.02536712    16"
    ]
  },
  "58365": {
    "noradId": "58365",
    "tle": [
      "1 58365C 23177Q   26002.82409722  .00018400  00000+0  13579-2 0    25",
      "2 58365  43.0038 349.5644 0001313 269.4967 210.2620 15.02512499    15"
    ]
  },
  "58366": {
    "noradId": "58366",
    "tle": [
      "1 58366C 23177R   26002.81784722  .00015384  00000+0  11353-2 0    27",
      "2 58366  43.0036 349.6403 0001250 261.7630 166.1252 15.02513560    10"
    ]
  },
  "58367": {
    "noradId": "58367",
    "tle": [
      "1 58367C 23177S   26002.82340278 -.00003271  00000+0 -24136-3 0    21",
      "2 58367  43.0035 349.5245 0001078 270.7411 223.2980 15.02533735    17"
    ]
  },
  "58368": {
    "noradId": "58368",
    "tle": [
      "1 58368C 23177T   26002.81715278 -.00011368  00000+0 -83883-3 0    27",
      "2 58368  43.0037 349.5875 0001117 266.5856 181.5586 15.02545573    10"
    ]
  },
  "58369": {
    "noradId": "58369",
    "tle": [
      "1 58369C 23177U   26002.81923611 -.00020904  00000+0 -15418-2 0    24",
      "2 58369  43.0036 349.5181 0001528 269.6336 213.7772 15.02572786    14"
    ]
  },
  "58370": {
    "noradId": "58370",
    "tle": [
      "1 58370C 23177V   26002.82201389  .00018645  00000+0  13751-2 0    23",
      "2 58370  43.0037 349.9784 0001461 265.6167  28.4383 15.02535508    14"
    ]
  },
  "58371": {
    "noradId": "58371",
    "tle": [
      "1 58371C 23177W   26002.82479167  .00000535  00000+0  39504-4 0    20",
      "2 58371  43.0039 349.8143 0001300 274.6266  88.6943 15.02529893    17"
    ]
  },
  "58372": {
    "noradId": "58372",
    "tle": [
      "1 58372C 23177X   26002.81715278 -.00000671  00000+0 -49501-4 0    27",
      "2 58372  43.0037 349.4561 0001368 269.5246 232.7211 15.02533469    15"
    ]
  }
}